[{"OBJECT_NAME":"STARLINK-32670","OBJECT_ID":"2024-229U","EPOCH":"2026-03-09T22:55:40.443744","MEAN_MOTION":15.27595716,"ECCENTRICITY":0.00012149,"INCLINATION":43.0008,"RA_OF_ASC_NODE":269.071,"ARG_OF_PERICENTER":347.935,"MEAN_ANOMALY":12.1472,"EPHEMERIS_TYPE":0,"CLASSIFICATION_TYPE":"U","NORAD_CAT_ID":62210,"ELEMENT_SET_NO":999,"REV_AT_EPOCH":7060,"BSTAR":0.00093602336,"MEAN_MOTION_DOT":0.00025597,"MEAN_MOTION_DDOT":0},{"OBJECT_NAME":"COSMOS 1758","OBJECT_ID":"1986-046A","EPOCH":"2026-03-09T22:23:33.220896","MEAN_MOTION":15.25706639,"ECCENTRICITY":0.00131526,"INCLINATION":82.4607,"RA_OF_ASC_NODE":143.3203,"ARG_OF_PERICENTER":337.3781,"MEAN_ANOMALY":22.6875,"EPHEMERIS_TYPE":0,"CLASSIFICATION_TYPE":"U","NORAD_CAT_ID":16791,"ELEMENT_SET_NO":999,"REV_AT_EPOCH":16610,"BSTAR":0.00027304427,"MEAN_MOTION_DOT":7.006e-5,"MEAN_MOTION_DDOT":0}]
